NORAD_CAT_ID,OBJECT_NAME,OBJECT_TYPE,EPOCH,MEAN_MOTION,ECCENTRICITY,INCLINATION,RA_OF_ASC_NODE,ARG_OF_PERICENTER,MEAN_ANOMALY,BSTAR,MEAN_MOTION_DOT,MEAN_MOTION_DDOT,TLE_LINE0,TLE_LINE1,TLE_LINE2,SEMIMAJOR_AXIS,PERIOD,APOGEE,PERIGEE,DECAYED
52642.0,STARLINK-3971,PAYLOAD,2022-12-20 16:56:34,15.08840999,0.000338,53.2183,133.8177,48.6416,311.4866,9.3702e-05,1.203e-05,0.0,0 STARLINK-3971,1 52642U 22052AW  22354.70596046  .00001203  00000-0  93702-4 0  9994,2 52642  53.2183 133.8177 0003380  48.6416 311.4866 15.08840999 34128,6917.877,95.437,542.081,537.404,0.0
52642.0,STARLINK-3971,PAYLOAD,2022-12-21 08:50:26,15.08835586,0.0003354,53.2182,130.8444,49.6976,310.4309,8.8755e-07,-2.75e-06,0.0,0 STARLINK-3971,1 52642U 22052AW  22355.36836512 -.00000275  00000-0  88755-6 0  9995,2 52642  53.2182 130.8444 0003354  49.6976 310.4309 15.08835586 34222,6917.894,95.438,542.0790000000002,537.439,0.0
52642.0,STARLINK-3971,PAYLOAD,2022-12-21 16:47:23,15.08825512,0.0003352,53.2182,129.3576,48.4227,311.7052,-6.421399999999999e-05,-1.31e-05,0.0,0 STARLINK-3971,1 52642U 22052AW  22355.69957479 -.00001310  00000-0 -64214-4 0  9991,2 52642  53.2182 129.3576 0003352  48.4227 311.7052 15.08825512 34277,6917.925,95.438,542.109,537.471,0.0
52642.0,STARLINK-3971,PAYLOAD,2022-12-22 02:19:41,15.08834038,0.0003332,53.2184,127.5739,47.3383,312.789,-9.964e-06,-4.47e-06,0.0,0 STARLINK-3971,1 52642U 22052AW  22356.09700990 -.00000447  00000-0 -99640-5 0  9992,2 52642  53.2184 127.5739 0003332  47.3383 312.7890 15.08834038 34330,6917.899,95.438,542.069,537.4590000000002,0.0
52642.0,STARLINK-3971,PAYLOAD,2022-12-22 08:41:14,15.08837027,0.000329,53.2185,126.384,47.4332,312.6937,-2.7241e-05,-7.22e-06,0.0,0 STARLINK-3971,1 52642U 22052AW  22356.36196889 -.00000722  00000-0 -27241-4 0  9991,2 52642  53.2185 126.3840 0003290  47.4332 312.6937 15.08837027 33992,6917.889,95.438,542.03,537.4780000000002,0.0
52642.0,STARLINK-3971,PAYLOAD,2022-12-22 15:02:46,15.08842463,0.0003405,53.2182,125.1958,48.68899999999999,311.4395,1.5283e-05,-4.6e-07,0.0,0 STARLINK-3971,1 52642U 22052AW  22356.62692458 -.00000046  00000-0  15283-4 0  9994,2 52642  53.2182 125.1958 0003405  48.6890 311.4395 15.08842463 34419,6917.873000000001,95.437,542.0930000000002,537.382,0.0
52642.0,STARLINK-3971,PAYLOAD,2022-12-23 08:32:00,15.08842437,0.0003937,53.2184,121.9254,48.1473,311.9855,1.006e-06,-2.73e-06,0.0,0 STARLINK-3971,1 52642U 22052AW  22357.35556592 -.00000273  00000-0  10060-5 0  9994,2 52642  53.2184 121.9254 0003937  48.1473 311.9855 15.08842437 34143,6917.873000000001,95.437,542.462,537.014,0.0
52642.0,STARLINK-3971,PAYLOAD,2022-12-23 18:04:20,15.08823883,0.000329,53.2189,120.1396,50.2164,309.9117,6.050600000000001e-05,6.74e-06,0.0,0 STARLINK-3971,1 52642U 22052AW  22357.75301769  .00000674  00000-0  60506-4 0  9995,2 52642  53.2189 120.1396 0003290  50.2164 309.9117 15.08823883 34589,6917.93,95.439,542.071,537.519,0.0
52642.0,STARLINK-3971,PAYLOAD,2022-12-24 08:22:48,15.08842165,0.0003266,53.2185,117.4645,46.3511,313.7752,7.504e-05,9.06e-06,0.0,0 STARLINK-3971,1 52642U 22052AW  22358.34916749  .00000906  00000-0  75040-4 0  9998,2 52642  53.2185 117.4645 0003266  46.3511 313.7752 15.08842165 34678,6917.874,95.437,541.998,537.479,0.0
52642.0,STARLINK-3971,PAYLOAD,2022-12-24 17:55:07,15.08842317,0.0003262,53.2188,115.6799,46.7156,313.4108,2.8721e-05,1.68e-06,0.0,0 STARLINK-3971,1 52642U 22052AW  22358.74660936  .00000168  00000-0  28721-4 0  9990,2 52642  53.2188 115.6799 0003262  46.7156 313.4108 15.08842317 34352,6917.873000000001,95.437,541.995,537.482,0.0
52642.0,STARLINK-3971,PAYLOAD,2022-12-25 08:13:35,15.08836536,0.0003239,53.2189,113.0036,47.2492,312.8772,0.00012322,1.673e-05,0.0,0 STARLINK-3971,1 52642U 22052AW  22359.34276964  .00001673  00000-0  12322-3 0  9992,2 52642  53.2189 113.0036 0003239  47.2492 312.8772 15.08836536 34820,6917.891,95.438,541.997,537.515,0.0
52642.0,STARLINK-3971,PAYLOAD,2022-12-25 14:35:07,15.08835379,0.0003222,53.219,111.8144,46.9114,313.2147,0.00010149,1.327e-05,0.0,0 STARLINK-3971,1 52642U 22052AW  22359.60773148  .00001327  00000-0  10149-3 0  9998,2 52642  53.2190 111.8144 0003222  46.9114 313.2147 15.08835379 34484,6917.895,95.438,541.988,537.531,0.0
52642.0,STARLINK-3971,PAYLOAD,2022-12-26 00:07:27,15.08831975,0.0003234,53.219,110.0299,45.3746,314.7509,2.8872e-05,1.71e-06,0.0,0 STARLINK-3971,1 52642U 22052AW  22360.00517680  .00000171  00000-0  28872-4 0  9990,2 52642  53.2190 110.0299 0003234  45.3746 314.7509 15.08831975 34928,6917.905,95.438,542.007,537.533,0.0
52642.0,STARLINK-3971,PAYLOAD,2022-12-26 08:04:22,15.08835393,0.0003184,53.2183,108.5427,43.3974,316.7268,4.8223e-05,4.79e-06,0.0,0 STARLINK-3971,1 52642U 22052AW  22360.33637491  .00000479  00000-0  48223-4 0  9992,2 52642  53.2183 108.5427 0003184  43.3974 316.7268 15.08835393 34595,6917.894,95.438,541.962,537.557,0.0
52642.0,STARLINK-3971,PAYLOAD,2022-12-26 17:36:41,15.08835809,0.0003145,53.2195,106.7598,43.4453,316.6787,3.9042e-05,3.33e-06,0.0,0 STARLINK-3971,1 52642U 22052AW  22360.73381562  .00000333  00000-0  39042-4 0  9999,2 52642  53.2195 106.7598 0003145  43.4453 316.6787 15.08835809 34651,6917.893,95.438,541.934,537.5830000000002,0.0
52642.0,STARLINK-3971,PAYLOAD,2022-12-27 07:55:09,15.08845814,0.0003177,53.22,104.0843,46.1515,313.974,0.00010893,1.446e-05,0.0,0 STARLINK-3971,1 52642U 22052AW  22361.32996660  .00001446  00000-0  10893-3 0  9994,2 52642  53.2200 104.0843 0003177  46.1515 313.9740 15.08845814 35125,6917.863,95.437,541.925,537.53,0.0
52642.0,STARLINK-3971,PAYLOAD,2022-12-27 14:16:40,15.08856293,0.0003052,53.2184,102.8936,41.9612,318.1613,0.00019116,2.756e-05,0.0,0 STARLINK-3971,1 52642U 22052AW  22361.59491637  .00002756  00000-0  19116-3 0  9999,2 52642  53.2184 102.8936 0003052  41.9612 318.1613 15.08856293 35161,6917.831,95.437,541.807,537.5840000000002,0.0
52642.0,STARLINK-3971,PAYLOAD,2022-12-28 07:45:55,15.08847436,0.0003073,53.2192,99.6222,47.76300000000001,312.3622,0.00010134,1.325e-05,0.0,0 STARLINK-3971,1 52642U 22052AW  22362.32355936  .00001325  00000-0  10134-3 0  9994,2 52642  53.2192  99.6222 0003073  47.7630 312.3622 15.08847436 35275,6917.858,95.437,541.849,537.597,0.0
52642.0,STARLINK-3971,PAYLOAD,2022-12-28 23:39:49,15.08819542,0.0003109,53.218,96.6481,42.679,317.4443,-6.8217e-05,-1.374e-05,0.0,0 STARLINK-3971,1 52642U 22052AW  22362.98598381 -.00001374  00000-0 -68217-4 0  9991,2 52642  53.2180  96.6481 0003109  42.6790 317.4443 15.08819542 35372,6917.943,95.439,541.9590000000002,537.6569999999998,0.0
52642.0,STARLINK-3971,PAYLOAD,2022-12-29 07:36:44,15.0883198,0.0002973,53.2179,95.1617,38.1883,321.9319,-0.00018882,-3.292e-05,0.0,0 STARLINK-3971,1 52642U 22052AW  22363.31718152 -.00003292  00000-0 -18882-3 0  9992,2 52642  53.2179  95.1617 0002973  38.1883 321.9319 15.08831980 35424,6917.905,95.438,541.827,537.7130000000002,0.0
52642.0,STARLINK-3971,PAYLOAD,2022-12-29 12:22:54,15.08818853,0.0002933,53.2185,94.2701,39.2839,320.8366,-0.00026661,-4.527e-05,0.0,0 STARLINK-3971,1 52642U 22052AW  22363.51591376 -.00004527  00000-0 -26661-3 0  9997,2 52642  53.2185  94.2701 0002933  39.2839 320.8366 15.08818853 35451,6917.945,95.439,541.839,537.781,0.0
52642.0,STARLINK-3971,PAYLOAD,2022-12-29 23:30:36,15.08826529,0.0003119,53.2206,92.1888,43.2135,316.9101,-0.00028572,-4.832e-05,0.0,0 STARLINK-3971,1 52642U 22052AW  22363.97959408 -.00004832  00000-0 -28572-3 0  9993,2 52642  53.2206  92.1888 0003119  43.2135 316.9101 15.08826529 35529,6917.922,95.438,541.944,537.629,0.0
52642.0,STARLINK-3971,PAYLOAD,2022-12-30 10:38:17,15.08830674,0.0002481,53.2199,90.1087,20.3799,339.7292,6.8916e-05,8.08e-06,0.0,0 STARLINK-3971,1 52642U 22052AW  22364.44325955  .00000808  00000-0  68916-4 0  9994,2 52642  53.2199  90.1087 0002481  20.3799 339.7292 15.08830674 35599,6917.909000000002,95.438,541.49,538.058,0.0
52642.0,STARLINK-3971,PAYLOAD,2022-12-30 12:13:40,15.0883658,0.0002726999999999,53.219,89.8105,33.7136,326.4029,0.00011645,1.565e-05,0.0,0 STARLINK-3971,1 52642U 22052AW  22364.50949559  .00001565  00000-0  11645-3 0  9990,2 52642  53.2190  89.8105 0002727  33.7136 326.4029 15.08836580 35225,6917.891,95.438,541.6419999999998,537.869,0.0
52642.0,STARLINK-3971,PAYLOAD,2022-12-30 15:24:26,15.08843238,0.0002858,53.2171,89.2141,38.0428,322.0766,0.00015419,2.167e-05,0.0,0 STARLINK-3971,1 52642U 22052AW  22364.64197085  .00002167  00000-0  15419-3 0  9996,2 52642  53.2171  89.2141 0002858  38.0428 322.0766 15.08843238 35627,6917.87,95.437,541.7130000000002,537.758,0.0
52642.0,STARLINK-3971,PAYLOAD,2022-12-30 23:21:20,15.08853951,0.0002848,53.2212,87.7275,40.3965,319.7239,0.00032846,4.945e-05,0.0,0 STARLINK-3971,1 52642U 22052AW  22364.97315725  .00004945  00000-0  32846-3 0  9994,2 52642  53.2212  87.7275 0002848  40.3965 319.7239 15.08853951 35671,6917.8380000000025,95.437,541.673,537.7330000000002,0.0
52642.0,STARLINK-3971,PAYLOAD,2022-12-31 08:53:39,15.08844897,0.0002758,53.2191,85.9446,32.3019,327.8142,0.00026211,3.886e-05,0.0,0 STARLINK-3971,1 52642U 22052AW  22365.37060100  .00003886  00000-0  26211-3 0  9995,2 52642  53.2191  85.9446 0002758  32.3019 327.8142 15.08844897 35737,6917.865,95.437,541.638,537.822,0.0
52642.0,STARLINK-3971,PAYLOAD,2022-12-31 12:04:26,15.08845563,0.0002993,53.2185,85.3514,35.2725,324.8465,0.00033436,5.038e-05,0.0,0 STARLINK-3971,1 52642U 22052AW  22365.50307911  .00005038  00000-0  33436-3 0  9992,2 52642  53.2185  85.3514 0002993  35.2725 324.8465 15.08845563 35373,6917.863,95.437,541.799,537.658,0.0
52642.0,STARLINK-3971,PAYLOAD,2022-12-31 15:15:12,15.08847072,0.0003011,53.218,84.7563,36.5008,323.6189,0.00033345,5.024e-05,0.0,0 STARLINK-3971,1 52642U 22052AW  22365.63555747  .00005024  00000-0  33345-3 0  9992,2 52642  53.2180  84.7563 0003011  36.5008 323.6189 15.08847072 35394,6917.859,95.437,541.807,537.641,0.0
